From: horizons@ssd.jpl.nasa.gov (Horizons Ephemeris System)
Subject: [Horizons] SMALL BODY #C(500@10)_T(Catalina (C/2018 W1)) (1/1)
Date: February 16, 2021 at 11:04:29 AM PST

Automated mail xmit by MAIL_REQUEST, PID= 28129 Tue Feb 16 11:04:29 2021
++++++++++++++++++++++++++++++++ (part 1 of 1)  +++++++++++++++++++++++++++++++


*******************************************************************************
Ephemeris / MAIL_REQUEST Tue Feb 16 11:04:28 2021 Pasadena, USA  / Horizons
*******************************************************************************
Target body name: Catalina (C/2018 W1)            {source: JPL#10}
Center body name: Sun (10)                        {source: DE431}
Center-site name: BODY CENTER
*******************************************************************************
Start time      : A.D. 2016-May-11 00:00:00.0000 TDB
Stop  time      : A.D. 2022-May-11 00:00:00.0000 TDB
Step-size       : 20160 minutes
*******************************************************************************
Center geodetic : 0.00000000,0.00000000,0.0000000 {E-lon(deg),Lat(deg),Alt(km)}
Center cylindric: 0.00000000,0.00000000,0.0000000 {E-lon(deg),Dxy(km),Dz(km)}
Center radii    : 696000.0 x 696000.0 x 696000.0 k{Equator, meridian, pole}    
Small perturbers: Yes                             {source: SB431-N16}
Output units    : AU-D
Output type     : GEOMETRIC cartesian states
Output format   : 3 (position, velocity, LT, range, range-rate)
Reference frame : Ecliptic of J2000.0
*******************************************************************************
Initial IAU76/J2000 heliocentric ecliptic osculating elements (au, days, deg.):
 EPOCH=  2458510.5 ! 2019-Jan-27.0000000 (TDB)    RMSW= n.a.                  
  EC= .937662754552529    QR= 1.360177195447402   TP= 2458615.3529378418      
  OM= 233.5895763829199   W= 251.2480607502961    IN= 83.27888375067246       
 Equivalent ICRF heliocentric equatorial cartesian coordinates (au, au/d):
  X= 1.167143446085398E+00  Y= 1.491531460650084E+00  Z= 5.721545680006686E-01
 VX=-7.101431169718302E-03 VY=-8.952847270164216E-04 VZ=-1.530824374214833E-02
Comet physical (GM= km^3/s^2; RAD= km):                                        
  GM= n.a.                RAD= n.a.                                           
  M1=  14.      M2=  15.8     k1=  10.    k2=  5.      PHCOF=  .030           
*******************************************************************************
           JDTDB,            Calendar Date (TDB),                      X,                      Y,                      Z,                     VX,                     VY,                     VZ,                     LT,                     RG,                     RR,
**************************************************************************************************************************************************************************************************************************************************************************
$$SOE
2458611.500000000, A.D. 2019-May-08 00:00:00.0000,  1.849612683548386E-01,  4.995128042541549E-01, -1.252761170766870E+00, -1.208833614917877E-02, -1.497450233599757E-02, -7.128155262535813E-03,  7.862205835622256E-03,  1.361298741418084E+00, -5.773556417859887E-04,
2458625.500000000, A.D. 2019-May-22 00:00:00.0000,  1.424839268914544E-02,  2.849374535372314E-01, -1.337791902314782E+00, -1.225226742555795E-02, -1.561905253020219E-02, -5.001027240185299E-03,  7.900181917630276E-03,  1.367874096187770E+00,  1.509865256385548E-03,
2458639.500000000, A.D. 2019-Jun-05 00:00:00.0000, -1.568145927319619E-01,  6.391214455724274E-02, -1.392725106821634E+00, -1.214212635255280E-02, -1.589491088259268E-02, -2.859395062137031E-03,  8.102948896849777E-03,  1.402982110323196E+00,  3.471559625989024E-03,
2458653.500000000, A.D. 2019-Jun-19 00:00:00.0000, -3.246616764711038E-01, -1.585277097641128E-01, -1.418572133496777E+00, -1.180374238135800E-02, -1.583125532144762E-02, -8.692183686807426E-04,  8.454544420064197E-03,  1.463858988040064E+00,  5.174654428184195E-03,
2458667.500000000, A.D. 2019-Jul-03 00:00:00.0000, -4.865973466786436E-01, -3.781446480778035E-01, -1.418269388663180E+00, -1.131056172128730E-02, -1.550689424710403E-02,  8.648766896521963E-04,  8.931084985367621E-03,  1.546369429173900E+00,  6.557883301139568E-03,
2458681.500000000, A.D. 2019-Jul-17 00:00:00.0000, -6.409782783211114E-01, -5.919342929649617E-01, -1.395728186782798E+00, -1.073553080797525E-02, -1.501350498259300E-02,  2.306473552048596E-03,  9.506469018358759E-03,  1.645994086212773E+00,  7.623988729611329E-03,
2458695.500000000, A.D. 2019-Jul-31 00:00:00.0000, -7.870763374609355E-01, -7.981053520170374E-01, -1.354999852164563E+00, -1.013498446347742E-02, -1.442988885224944E-02,  3.467759522459898E-03,  1.015651774549623E-02,  1.758546534293349E+00,  8.413063882553577E-03,
2458709.500000000, A.D. 2019-Aug-14 00:00:00.0000, -9.248117900626406E-01, -9.958182514028243E-01, -1.299770119436356E+00, -9.545453972445835E-03, -1.381280204608696E-02,  4.385118575399938E-03,  1.086094353414402E-02,  1.880514078715031E+00,  8.977940049654964E-03,
2458723.500000000, A.D. 2019-Aug-28 00:00:00.0000, -1.054497036428556E+00, -1.184878604581357E+00, -1.233153460634118E+00, -8.987272559126045E-03, -1.319837136695239E-02,  5.101599116544670E-03,  1.160371742542888E-02,  2.009121391281566E+00,  9.369501317116799E-03,
2458737.500000000, A.D. 2019-Sep-11 00:00:00.0000, -1.176646248150007E+00, -1.365483073571102E+00, -1.157672891606361E+00, -8.469766439643815E-03, -1.260726781953472E-02,  5.657675654040236E-03,  1.237262015837594E-02,  2.142252772539904E+00,  9.630605802330964E-03,
2458751.500000000, A.D. 2019-Sep-25 00:00:00.0000, -1.291853332130910E+00, -1.538040605126313E+00, -1.075325719607469E+00, -7.995607218491733E-03, -1.204992437414078E-02,  6.087701532055189E-03,  1.315852622213580E-02,  2.278328189266062E+00,  9.794972856928246E-03,
2458765.500000000, A.D. 2019-Oct-09 00:00:00.0000, -1.400721140806180E+00, -1.703058383814078E+00, -9.876753850902624E-01, -7.563796048734179E-03, -1.153048398565004E-02,  6.419355181401834E-03,  1.395469719686921E-02,  2.416180920232172E+00,  9.888173998280517E-03,
2458779.500000000, A.D. 2019-Oct-23 00:00:00.0000, -1.503824267408391E+00, -1.861073710029489E+00, -8.959407772580877E-01, -7.171529475524861E-03, -1.104945653017838E-02,  6.674345090006460E-03,  1.475618673236195E-02,  2.554954531447309E+00,  9.929239396740945E-03,
2458793.500000000, A.D. 2019-Nov-06 00:00:00.0000, -1.601692043179098E+00, -2.012615796994120E+00, -8.010724589850271E-01, -6.815275629718494E-03, -1.060539108117022E-02,  6.869477831763409E-03,  1.555937590693002E-02,  2.694022426045824E+00,  9.932211630508257E-03,
2458807.500000000, A.D. 2019-Nov-20 00:00:00.0000, -1.694802844457821E+00, -2.158185964958507E+00, -7.038138489325817E-01, -6.491354091367465E-03, -1.019587851241856E-02,  7.017701318751321E-03,  1.636162374420323E-02,  2.832927333144198E+00,  9.907423879240746E-03,
2458821.500000000, A.D. 2019-Dec-04 00:00:00.0000, -1.783584328733181E+00, -2.298248566921470E+00, -6.047488266246770E-01, -6.196237316870945E-03, -9.818116215891742E-03,  7.128991775877011E-03,  1.716100850249479E-02,  2.971336513483976E+00,  9.862475607882318E-03,
2458835.500000000, A.D. 2019-Dec-18 00:00:00.0000, -1.868416815662307E+00, -2.433228040522095E+00, -5.043381912718737E-01, -5.926701435304442E-03, -9.469248415347145E-03,  7.211058336657156E-03,  1.795613860522991E-02,  3.109009023050279E+00,  9.802987719044105E-03,
2458849.500000000, A.D. 2020-Jan-01 00:00:00.0000, -1.949637791610674E+00, -2.563509562818331E+00, -4.029474480457041E-01, -5.679853141226032E-03, -9.146538700113869E-03,  7.269884063231906E-03,  1.874601530046107E-02,  3.245771933304022E+00,  9.733128259673140E-03,
2458863.500000000, A.D. 2020-Jan-15 00:00:00.0000, -2.027546591415246E+00, -2.689441289181488E+00, -3.008679473343119E-01, -5.453134235123488E-03, -8.847443455665684E-03,  7.310138838299897E-03,  1.952993137815378E-02,  3.381502794623557E+00,  9.655995863503953E-03,
2458877.500000000, A.D. 2020-Jan-29 00:00:00.0000, -2.102408979496222E+00, -2.811337333649372E+00, -1.983329941291688E-01, -5.244302509818910E-03, -8.569646271682449E-03,  7.335489545388749E-03,  2.030739682522851E-02,  3.516116763874223E+00,  9.573904350535917E-03,
2458891.500000000, A.D. 2020-Feb-12 00:00:00.0000, -2.174461350371217E+00, -2.929481026640804E+00, -9.553018342720425E-02, -5.051397570957398E-03, -8.311065286257012E-03,  7.348832708853312E-03,  2.107808412217710E-02,  3.649557132811092E+00,  9.488587314522451E-03,
2458905.500000000, A.D. 2020-Feb-26 00:00:00.0000, -2.243914388735093E+00, -3.044128085591681E+00,  7.389101283991668E-03, -4.872703341828704E-03, -8.069831670535297E-03,  7.352470649902380E-03,  2.184178722332245E-02,  3.781788225731082E+00,  9.401335136498103E-03,
2458919.500000000, A.D. 2020-Mar-11 00:00:00.0000, -2.310956414880219E+00, -3.155509453788761E+00,  1.103023577082735E-01, -4.706737330295384E-03, -7.844277621145486E-03,  7.348245784366178E-03,  2.259839073402482E-02,  3.912790062671684E+00,  9.313120629943600E-03,
2458933.500000000, A.D. 2020-Mar-25 00:00:00.0000, -2.375756365327763E+00, -3.263834137549201E+00,  2.131102435756313E-01, -4.552204829569939E-03, -7.632931525790555E-03,  7.337638748072242E-03,  2.334784810295813E-02,  4.042554583520646E+00,  9.224681397368322E-03,
2458947.500000000, A.D. 2020-Apr-08 00:00:00.0000, -2.438466188224146E+00, -3.369291716077114E+00,  3.157320785211926E-01, -4.407970915654498E-03, -7.434485933264488E-03,  7.321846255575897E-03,  2.409016450876838E-02,  4.171082684932722E+00,  9.136568253438750E-03,
2458961.500000000, A.D. 2020-Apr-22 00:00:00.0000, -2.499222954864777E+00, -3.472054508068545E+00,  4.181023049024371E-01, -4.273041873145316E-03, -7.247779974447615E-03,  7.301840589894055E-03,  2.482538377085438E-02,  4.298381954001629E+00,  9.049192991024513E-03,
